1P/Halley,e,162.2837,58.4908,111.3623,17.85431,0.0130644,0.96780912,143.4771,02/17.0/2016,2000,g  5.5,3.2
# From NK 2573
2P/Encke,e,11.7808,334.5675,186.5510,2.215040,0.2989729,0.84835534,244.2779,02/17.0/2016,2000,g 11.5,6.0
# From MPC 92275
4P/Faye,e,9.1021,199.0708,205.0445,3.833742,0.1313015,0.57077121,82.4160,02/17.0/2016,2000,g  8.0,6.0
# From MPC 95735
6P/d'Arrest,e,19.4818,138.9318,178.1044,3.502783,0.1503433,0.61135563,52.8622,02/17.0/2016,2000,g  7.5,16.0
# From MPC 92984
7P/Pons-Winnecke,e,22.3359,93.4065,172.4988,3.418826,0.1559152,0.63764406,59.6316,02/17.0/2016,2000,g 10.0,6.0
# From MPC 75715
8P/Tuttle,e,55.0168,270.3146,207.5160,5.690374,0.0726094,0.82035520,213.4051,02/17.0/2016,2000,g  8.0,8.0
# From MPC 84319
9P/Tempel,e,10.4733,68.7578,179.1923,3.146390,0.1765978,0.50975029,330.4083,02/17.0/2016,2000,g  5.5,10.0
# From MPC 92984
10P/Tempel,e,12.0287,117.8044,195.5433,3.064300,0.1837415,0.53737333,17.4092,02/17.0/2016,2000,g  5.0,10.0
# From MPC 89730
11P/Tempel-Swift-LINEAR,e,13.5923,240.2074,164.2182,3.411018,0.1564509,0.54704259,84.2858,02/17.0/2016,2000,g 17.0,4.0
# From QJ 27, 604
12P/Pons-Brooks,e,74.2973,255.8764,199.1703,16.94882,0.0141252,0.95441463,317.7955,02/17.0/2016,2000,g  5.0,6.0
# From QJ 27, 604
13P/Olbers,e,44.6427,86.1282,64.5255,16.65795,0.0144968,0.93058938,315.7277,02/17.0/2016,2000,g  5.0,6.0
# From MPC 75715
14P/Wolf,e,27.9044,202.1221,159.0843,4.255798,0.1122619,0.35555107,286.5440,02/17.0/2016,2000,g  5.5,12.0
# From MPC 91617
15P/Finlay,e,6.8030,13.7224,347.7163,3.493530,0.1509410,0.72000241,62.9354,02/17.0/2016,2000,g 12.0,4.0
# From MPC 92276
16P/Brooks,e,4.2884,159.2844,219.9484,3.367997,0.1594581,0.56567873,98.3771,02/17.0/2016,2000,g  7.5,10.0
# From MPC 83523
17P/Holmes,e,19.0869,326.7700,24.6744,3.623477,0.1428946,0.43112115,98.8188,02/17.0/2016,2000,g 10.0,6.0
# From MPC 92984
19P/Borrelly,e,30.3673,75.3560,353.4754,3.602297,0.1441567,0.62556406,38.0676,02/17.0/2016,2000,g  4.5,10.0
# From MPC 94674
21P/Giacobini-Zinner,e,31.9387,195.3988,172.5216,3.513956,0.1496269,0.70714180,219.5962,02/17.0/2016,2000,g  9.0,6.0
# From MPC 94283
22P/Kopff,e,4.7371,120.8722,162.8979,3.445746,0.1540917,0.54778669,17.7060,02/17.0/2016,2000,g  3.0,10.4
# From MPC 14747
23P/Brorsen-Metcalf,e,19.4514,311.1593,130.0233,16.96295,0.0141076,0.97163444,0.0000,09/21.1691/1989,2000,g  7.8,3.2
# From MPC 56804
24P/Schaumasse,e,11.7331,79.6575,58.0159,4.086128,0.1193263,0.70481515,283.7838,02/17.0/2016,2000,g  6.5,14.0
# From MPC 94674
26P/Grigg-Skjellerup,e,22.4427,211.5307,2.1490,3.016298,0.1881450,0.64064105,179.7925,02/17.0/2016,2000,g 12.0,16.0
# From MPC 78188
27P/Crommelin,e,29.2265,250.5817,196.0261,9.221791,0.0351950,0.91892997,58.3982,02/17.0/2016,2000,g 12.0,8.0
# From MPC 75715
28P/Neujmin,e,14.3170,346.3505,347.5802,6.937645,0.0539369,0.77245781,260.0248,02/17.0/2016,2000,g  8.5,6.0
# From MPC 92276
29P/Schwassmann-Wachmann,e,9.3772,312.4075,49.3448,6.013549,0.0668356,0.04159457,284.0276,02/17.0/2016,2000,g  4.0,4.0
# From NK 2729
30P/Reinmuth,e,8.1287,119.7177,13.2393,3.771061,0.1345887,0.50228218,286.1042,02/17.0/2016,2000,g  9.5,6.0
# From MPC 79344
31P/Schwassmann-Wachmann,e,4.5466,114.1448,18.2563,4.247285,0.1125996,0.19398502,221.0478,02/17.0/2016,2000,g  5.0,8.0
# From MPC 92276
32P/Comas Sola,e,9.9714,57.8222,53.2904,4.504942,0.1030790,0.55592735,50.2622,02/17.0/2016,2000,g  6.5,8.0
# From MPC 84320
33P/Daniel,e,22.3931,66.4920,19.0629,4.023990,0.1221009,0.46316193,337.1130,02/17.0/2016,2000,g 10.0,12.0
# From QJ 15, 452
35P/Herschel-Rigollet,e,63.3380,355.5055,29.4939,28.56593,0.0064555,0.97339930,0.0000,03/29.2369/2092,2000,g  8.5,4.0
# From MPC 75716
36P/Whipple,e,9.9525,181.9625,200.0885,4.149282,0.1166124,0.26391721,176.9406,02/17.0/2016,2000,g  8.5,6.0
# From MPC 94674
37P/Forbes,e,8.9733,314.6510,330.1103,3.452011,0.1536724,0.53498655,235.9663,02/17.0/2016,2000,g 10.5,4.8
# From QJ 27, 605
38P/Stephan-Oterma,e,18.3644,78.0457,359.6164,11.27070,0.0260482,0.85932467,334.0086,02/17.0/2016,2000,g  3.5,12.0
# From MPC 75716
39P/Oterma,e,1.5222,300.4613,93.0736,7.417699,0.0487866,0.22470273,231.7976,02/17.0/2016,2000,g  5.0,6.0
# From MPC 86231
40P/Vaisala,e,11.4924,133.8406,47.3044,4.941411,0.0897279,0.63167285,41.1066,02/17.0/2016,2000,g  5.5,12.0
# From MPC 62882
41P/Tuttle-Giacobini-Kresak,e,9.2291,141.0804,62.1229,3.084763,0.1819162,0.66109071,283.2359,02/17.0/2016,2000,g 10.0,16.0
# From MPC 94283
42P/Neujmin,e,3.9845,150.2809,147.1154,4.876266,0.0915320,0.58417728,28.8138,02/17.0/2016,2000,g 13.0,6.0
# From MPC 84320
43P/Wolf-Harrington,e,15.9648,249.8359,191.5942,3.349584,0.1607747,0.59460036,330.3085,02/17.0/2016,2000,g  8.0,6.0
# From MPC 89313
44P/Reinmuth,e,5.8956,286.4594,58.2627,3.692819,0.1388888,0.42632451,45.8238,02/17.0/2016,2000,g  8.3,6.0
# From MPC 84320
45P/Honda-Mrkos-Pajdusakova,e,4.2500,89.0073,326.2776,3.023960,0.1874304,0.82394227,300.3617,02/17.0/2016,2000,g 13.5,8.0
# From MPC 88330
46P/Wirtanen,e,11.7516,82.1729,356.3588,3.088827,0.1815573,0.65872661,173.0057,02/17.0/2016,2000,g  9.0,6.0
# From NK 2718
47P/Ashbrook-Jackson,e,13.0308,356.9749,357.7321,4.124050,0.1176842,0.31674631,303.5755,02/17.0/2016,2000,g  1.0,11.2
# From MPC 94675
48P/Johnson,e,12.3545,111.9829,214.0539,3.515537,0.1495259,0.42920858,225.0492,02/17.0/2016,2000,g 10.0,6.0
# From MPC 94675
49P/Arend-Rigaux,e,19.0533,118.8342,332.9283,3.567525,0.1462694,0.59982249,231.3825,02/17.0/2016,2000,g 11.3,4.4
# From MPC 95735
50P/Arend,e,19.1392,355.1760,49.2222,4.084370,0.1194034,0.53020973,1.0520,02/17.0/2016,2000,g  9.5,6.0
# From NK 3014
51P-A/Harrington,e,5.4244,83.6906,269.2782,3.713856,0.1377103,0.54238180,25.9348,02/17.0/2016,2000,g 10.0,8.0
# From NK 3013
51P-D/Harrington,e,5.4252,83.6754,269.3167,3.712854,0.1377661,0.54232246,26.0945,02/17.0/2016,2000,g 16.0,8.0
# From MPC 88330
52P/Harrington-Abell,e,10.2315,336.8396,139.6480,3.858882,0.1300205,0.54016492,92.5187,02/17.0/2016,2000,g 13.5,6.0
# From MPC 84320
53P/Van Biesbroeck,e,6.6084,148.9228,134.1960,5.412116,0.0782805,0.55154029,354.2909,02/17.0/2016,2000,g  7.7,4.8
# From NK 2713
54P/de Vico-Swift-NEAT,e,6.0573,358.8543,1.8899,3.795169,0.1333084,0.42439977,303.5377,02/17.0/2016,2000,g 10.0,6.0
# From MPC 31070
55P/Tempel-Tuttle,e,162.3868,235.3919,172.6145,10.33876,0.0296484,0.90629983,194.3977,02/17.0/2016,2000,g 10.0,10.0
# From MPC 75716
56P/Slaughter-Burnham,e,8.1480,345.9862,44.2262,5.085623,0.0859385,0.50673121,346.8981,02/17.0/2016,2000,g  8.5,6.0
# From MPC 92984
57P/du Toit-Neujmin-Delporte,e,2.8482,188.8099,115.1911,3.452334,0.1536508,0.49929166,41.6025,02/17.0/2016,2000,g 12.5,6.0
# From MPC 65938
58P/Jackson-Neujmin,e,13.5493,160.5945,200.0867,4.053616,0.1207647,0.66541946,170.1617,02/17.0/2016,2000,g 15.5,6.0
# From MPC 94675
59P/Kearns-Kwee,e,9.3448,312.8436,127.7794,4.492677,0.1035014,0.47563259,262.4274,02/17.0/2016,2000,g  7.0,6.0
# From MPC 94675
60P/Tsuchinshan,e,3.6078,267.6473,216.5168,3.509893,0.1498868,0.53839981,205.9521,02/17.0/2016,2000,g 11.5,6.0
# From MPC 95213
61P/Shajn-Schaldach,e,6.0058,163.0189,221.9055,3.680458,0.1395890,0.42564188,19.2449,02/17.0/2016,2000,g  6.0,10.0
# From MPC 62881
62P/Tsuchinshan,e,9.7088,90.2693,30.3253,3.438981,0.1545466,0.59777408,261.3904,02/17.0/2016,2000,g  8.0,10.0
# From MPC 84320
63P/Wild,e,19.7847,357.9705,169.1243,5.594647,0.0744809,0.65108845,77.6031,02/17.0/2016,2000,g 10.5,6.0
# From MPC 94675
64P/Swift-Gehrels,e,8.9441,300.0304,97.1456,4.453313,0.1048767,0.68725973,256.0636,02/17.0/2016,2000,g  8.5,12.0
# From MPC 92276
65P/Gunn,e,9.1612,62.2509,212.8186,3.894557,0.1282381,0.25256694,282.4331,02/17.0/2016,2000,g  5.0,6.0
# From MPC 94675
66P/du Toit,e,18.6750,21.9148,257.3325,6.034939,0.0664806,0.78672225,305.3264,02/17.0/2016,2000,g 12.0,3.6
# From MPC 89011
67P/Churyumov-Gerasimenko,e,7.0404,50.1252,12.8174,3.463666,0.1528974,0.64104920,28.7285,02/17.0/2016,2000,g 11.0,4.0
# From MPC 75716
68P/Klemola,e,11.1822,175.3012,153.8466,4.898846,0.0908999,0.64031161,236.0053,02/17.0/2016,2000,g 10.0,4.0
# From MPC 77020
69P/Taylor,e,22.0438,104.8534,343.6723,3.888357,0.1285449,0.41369441,215.3730,02/17.0/2016,2000,g  9.5,12.0
# From MPC 92276
70P/Kojima,e,6.6002,119.2669,1.9394,3.673256,0.1399998,0.45372281,67.8188,02/17.0/2016,2000,g 11.0,6.0
# From NK 2721
71P/Clark,e,9.4447,59.5058,208.9536,3.135833,0.1774904,0.49494858,271.4345,02/17.0/2016,2000,g  9.8,6.0
# From MPC 89011
72P/Denning-Fujikawa,e,9.8492,31.4094,342.1844,4.344608,0.1088374,0.82346812,63.4352,02/17.0/2016,2000,g 17.5,10.0
# From NK 2710
73P/Schwassmann-Wachmann,e,11.2390,69.7009,199.3949,3.090427,0.1814163,0.68573349,288.5581,02/17.0/2016,2000,g 11.5,6.0
# From MPC 94675
74P/Smirnova-Chernykh,e,6.6529,77.0561,86.8724,4.158588,0.1162212,0.14917764,277.6998,02/17.0/2016,2000,g  5.0,6.0
# From MPC 82322
76P/West-Kohoutek-Ikemura,e,30.4729,84.1327,0.0848,3.471821,0.1523590,0.53827125,154.7351,02/17.0/2016,2000,g  8.0,12.0
# From MPC 84320
77P/Longmore,e,24.3444,14.8034,196.7296,3.618051,0.1432162,0.35387741,347.5902,02/17.0/2016,2000,g  7.0,8.0
# From MPC 79654
78P/Gehrels,e,6.2501,210.5589,192.7310,3.737560,0.1364023,0.46116793,204.3364,02/17.0/2016,2000,g  5.5,8.0
# From MPC 94675
79P/du Toit-Hartley,e,3.1453,280.5892,281.7320,2.945630,0.1949560,0.61902521,176.8874,02/17.0/2016,2000,g 16.0,4.0
# From MPC 89313
80P/Peters-Hartley,e,29.9218,259.8739,339.1385,4.023035,0.1221443,0.59920585,56.6659,02/17.0/2016,2000,g  9.0,8.0
# From MPC 84320
81P/Wild,e,3.2391,136.1262,41.7102,3.448257,0.1539234,0.53828480,336.2436,02/17.0/2016,2000,g  7.0,6.0
# From MPC 75717
82P/Gehrels,e,1.1271,239.3336,227.0915,4.144728,0.1168046,0.12333261,259.3390,02/17.0/2016,2000,g  5.0,8.0
# From MPC 69911
84P/Giclas,e,7.2738,112.1719,276.1920,3.626748,0.1427013,0.49833187,133.7957,02/17.0/2016,2000,g  9.5,8.0
# From MPC 79347
86P/Wild,e,15.4711,72.4035,179.1581,3.604946,0.1439978,0.37211483,46.0180,02/17.0/2016,2000,g 11.0,6.0
# From MPC 87068
